start=new Date('2023-02-16T00:00:00.000Z').valueOf();
sats=[{"MEAN_MOTION_DOT":"0.00009866","GP_ID":"225500187","ECCENTRICITY":"0.00013480","BSTAR":"0.00063675000000","TIME_SYSTEM":"UTC","NORAD_CAT_ID":"54197","EPHEMERIS_TYPE":"0","MEAN_ANOMALY":"272.8701","REV_AT_EPOCH":"1742","FILE":"3793899","OBJECT_TYPE":"PAYLOAD","MEAN_MOTION":"15.08858815","REF_FRAME":"TEME","RA_OF_ASC_NODE":"333.7358","ARG_OF_PERICENTER":"87.2446","SEMIMAJOR_AXIS":"6917.823","TLE_LINE1":"1 54197U 22141AS  23046.52938123  .00009866  00000-0  63675-3 0  9993","SITE":"AFWTR","CENTER_NAME":"EARTH","MEAN_ELEMENT_THEORY":"SGP4","COUNTRY_CODE":"US","DECAY_DATE":null,"TLE_LINE2":"2 54197  53.2186 333.7358 0001348  87.2446 272.8701 15.08858815 17422","CLASSIFICATION_TYPE":"U","OBJECT_NAME":"STARLINK-5234","EPOCH":"2023-02-15T12:42:18.538272","PERIOD":"95.436","ELEMENT_SET_NO":"999","LAUNCH_DATE":"2022-10-28","OBJECT_ID":"2022-141AS","MEAN_MOTION_DDOT":"0.0000000000000","APOAPSIS":"540.620","RCS_SIZE":"LARGE","PERIAPSIS":"538.755","INCLINATION":"53.2186"},{"OBJECT_NAME":"STARLINK-5246","TLE_LINE2":"2 54198  53.2189 333.6386 0001321  72.3777 287.7359 15.08849606 17195","CLASSIFICATION_TYPE":"U","PERIOD":"95.437","EPOCH":"2023-02-15T12:21:04.876992","MEAN_ELEMENT_THEORY":"SGP4","COUNTRY_CODE":"US","DECAY_DATE":null,"RCS_SIZE":"LARGE","APOAPSIS":"540.630","PERIAPSIS":"538.802","INCLINATION":"53.2189","ELEMENT_SET_NO":"999","LAUNCH_DATE":"2022-10-28","OBJECT_ID":"2022-141AT","MEAN_MOTION_DDOT":"0.0000000000000","BSTAR":"0.00007195700000","EPHEMERIS_TYPE":"0","NORAD_CAT_ID":"54198","MEAN_ANOMALY":"287.7359","TIME_SYSTEM":"UTC","REV_AT_EPOCH":"1719","OBJECT_TYPE":"PAYLOAD","FILE":"3793706","MEAN_MOTION_DOT":"0.00000858","GP_ID":"225496083","ECCENTRICITY":"0.00013210","SEMIMAJOR_AXIS":"6917.851","ARG_OF_PERICENTER":"72.3777","TLE_LINE1":"1 54198U 22141AT  23046.51463978  .00000858  00000-0  71957-4 0  9999","SITE":"AFWTR","CENTER_NAME":"EARTH","MEAN_MOTION":"15.08849606","REF_FRAME":"TEME","RA_OF_ASC_NODE":"333.6386"},{"MEAN_MOTION_DDOT":"0.0000000000000","OBJECT_ID":"2022-141AU","LAUNCH_DATE":"2022-10-28","ELEMENT_SET_NO":"999","INCLINATION":"53.2182","PERIAPSIS":"538.878","APOAPSIS":"540.581","RCS_SIZE":"LARGE","DECAY_DATE":null,"COUNTRY_CODE":"US","MEAN_ELEMENT_THEORY":"SGP4","PERIOD":"95.437","EPOCH":"2023-02-15T12:31:41.963808","OBJECT_NAME":"STARLINK-5244","TLE_LINE2":"2 54199  53.2182 333.6871 0001231  78.6107 281.5023 15.08845067 17427","CLASSIFICATION_TYPE":"U","RA_OF_ASC_NODE":"333.6871","REF_FRAME":"TEME","MEAN_MOTION":"15.08845067","CENTER_NAME":"EARTH","SITE":"AFWTR","TLE_LINE1":"1 54199U 22141AU  23046.52201347  .00001207  00000-0  93885-4 0  9994","SEMIMAJOR_AXIS":"6917.865","ARG_OF_PERICENTER":"78.6107","GP_ID":"225502019","ECCENTRICITY":"0.00012310","MEAN_MOTION_DOT":"0.00001207","OBJECT_TYPE":"PAYLOAD","FILE":"3793971","REV_AT_EPOCH":"1742","NORAD_CAT_ID":"54199","EPHEMERIS_TYPE":"0","MEAN_ANOMALY":"281.5023","TIME_SYSTEM":"UTC","BSTAR":"0.00009388500000"},{"PERIAPSIS":"538.999","INCLINATION":"53.2188","RCS_SIZE":"LARGE","APOAPSIS":"540.503","OBJECT_ID":"2022-141AV","MEAN_MOTION_DDOT":"0.0000000000000","ELEMENT_SET_NO":"999","LAUNCH_DATE":"2022-10-28","PERIOD":"95.438","EPOCH":"2023-02-15T02:38:09.997152","OBJECT_NAME":"STARLINK-5250","CLASSIFICATION_TYPE":"U","TLE_LINE2":"2 54200  53.2188 335.3792 0001087  73.1276 286.9835 15.08838161 17138","COUNTRY_CODE":"US","DECAY_DATE":null,"MEAN_ELEMENT_THEORY":"SGP4","SITE":"AFWTR","CENTER_NAME":"EARTH","SEMIMAJOR_AXIS":"6917.886","ARG_OF_PERICENTER":"73.1276","TLE_LINE1":"1 54200U 22141AV  23046.10983793  .00000645  00000-0  58596-4 0  9998","REF_FRAME":"TEME","RA_OF_ASC_NODE":"335.3792","MEAN_MOTION":"15.08838161","REV_AT_EPOCH":"1713","OBJECT_TYPE":"PAYLOAD","FILE":"3793706","BSTAR":"0.00005859600000","EPHEMERIS_TYPE":"0","NORAD_CAT_ID":"54200","MEAN_ANOMALY":"286.9835","TIME_SYSTEM":"UTC","MEAN_MOTION_DOT":"0.00000645","ECCENTRICITY":"0.00010870","GP_ID":"225495082"},{"LAUNCH_DATE":"2022-10-28","ELEMENT_SET_NO":"999","MEAN_MOTION_DDOT":"0.0000000000000","OBJECT_ID":"2022-141AW","APOAPSIS":"540.492","RCS_SIZE":"LARGE","INCLINATION":"53.2188","PERIAPSIS":"539.033","MEAN_ELEMENT_THEORY":"SGP4","DECAY_DATE":null,"COUNTRY_CODE":"US","CLASSIFICATION_TYPE":"U","TLE_LINE2":"2 54201  53.2188 333.5730 0001054  87.1285 272.9828 15.08834388 17426","OBJECT_NAME":"STARLINK-5199","EPOCH":"2023-02-15T12:05:10.403232","PERIOD":"95.438","MEAN_MOTION":"15.08834388","RA_OF_ASC_NODE":"333.5730","REF_FRAME":"TEME","TLE_LINE1":"1 54201U 22141AW  23046.50359263  .00000397  00000-0  43057-4 0  9992","ARG_OF_PERICENTER":"87.1285","SEMIMAJOR_AXIS":"6917.898","CENTER_NAME":"EARTH","SITE":"AFWTR","ECCENTRICITY":"0.00010540","GP_ID":"225500706","MEAN_MOTION_DOT":"0.00000397","NORAD_CAT_ID":"54201","EPHEMERIS_TYPE":"0","MEAN_ANOMALY":"272.9828","TIME_SYSTEM":"UTC","BSTAR":"0.00004305700000","FILE":"3793901","OBJECT_TYPE":"PAYLOAD","REV_AT_EPOCH":"1742"},{"APOAPSIS":"540.510","RCS_SIZE":"LARGE","INCLINATION":"53.2170","PERIAPSIS":"538.970","LAUNCH_DATE":"2022-10-28","ELEMENT_SET_NO":"999","MEAN_MOTION_DDOT":"0.0000000000000","OBJECT_ID":"2022-141AX","TLE_LINE2":"2 54202  53.2170 332.3614 0001113  83.2700 276.8419 15.08841796 17230","CLASSIFICATION_TYPE":"U","OBJECT_NAME":"STARLINK-5205","EPOCH":"2023-02-15T18:21:24.007680","PERIOD":"95.437","MEAN_ELEMENT_THEORY":"SGP4","DECAY_DATE":null,"COUNTRY_CODE":"US","TLE_LINE1":"1 54202U 22141AX  23046.76486120  .00001953  00000-0  14077-3 0  9992","ARG_OF_PERICENTER":"83.2700","SEMIMAJOR_AXIS":"6917.875","CENTER_NAME":"EARTH","SITE":"AFWTR","MEAN_MOTION":"15.08841796","RA_OF_ASC_NODE":"332.3614","REF_FRAME":"TEME","EPHEMERIS_TYPE":"0","NORAD_CAT_ID":"54202","MEAN_ANOMALY":"276.8419","TIME_SYSTEM":"UTC","BSTAR":"0.00014077000000","FILE":"3795153","OBJECT_TYPE":"PAYLOAD","REV_AT_EPOCH":"1723","GP_ID":"225554081","ECCENTRICITY":"0.00011130","MEAN_MOTION_DOT":"0.00001953"},{"PERIOD":"95.438","EPOCH":"2023-02-15T01:08:05.220096","OBJECT_NAME":"STARLINK-5247","TLE_LINE2":"2 54203  53.2163 335.7001 0001255  76.8268 283.2864 15.08840481 17128","CLASSIFICATION_TYPE":"U","COUNTRY_CODE":"US","DECAY_DATE":null,"MEAN_ELEMENT_THEORY":"SGP4","PERIAPSIS":"538.876","INCLINATION":"53.2163","APOAPSIS":"540.612","RCS_SIZE":"LARGE","OBJECT_ID":"2022-141AY","MEAN_MOTION_DDOT":"0.0000000000000","ELEMENT_SET_NO":"999","LAUNCH_DATE":"2022-10-28","REV_AT_EPOCH":"1712","OBJECT_TYPE":"PAYLOAD","FILE":"3793706","BSTAR":"0.00005259100000","NORAD_CAT_ID":"54203","EPHEMERIS_TYPE":"0","MEAN_ANOMALY":"283.2864","TIME_SYSTEM":"UTC","MEAN_MOTION_DOT":"0.00000549","GP_ID":"225495821","ECCENTRICITY":"0.00012550","SITE":"AFWTR","CENTER_NAME":"EARTH","SEMIMAJOR_AXIS":"6917.879","ARG_OF_PERICENTER":"76.8268","TLE_LINE1":"1 54203U 22141AY  23046.04728264  .00000549  00000-0  52591-4 0  9996","REF_FRAME":"TEME","RA_OF_ASC_NODE":"335.7001","MEAN_MOTION":"15.08840481"},{"OBJECT_TYPE":"PAYLOAD","FILE":"3793706","REV_AT_EPOCH":"1719","EPHEMERIS_TYPE":"0","NORAD_CAT_ID":"54204","MEAN_ANOMALY":"278.5157","TIME_SYSTEM":"UTC","BSTAR":"-0.00002551700000","GP_ID":"225494582","ECCENTRICITY":"0.00010770","MEAN_MOTION_DOT":"-0.00000694","CENTER_NAME":"EARTH","SITE":"AFWTR","TLE_LINE1":"1 54204U 22141AZ  23046.48883972 -.00000694  00000-0 -25517-4 0  9994","SEMIMAJOR_AXIS":"6917.831","ARG_OF_PERICENTER":"81.5957","RA_OF_ASC_NODE":"333.4796","REF_FRAME":"TEME","MEAN_MOTION":"15.08856144","PERIOD":"95.437","EPOCH":"2023-02-15T11:43:55.751808","OBJECT_NAME":"STARLINK-5241","CLASSIFICATION_TYPE":"U","TLE_LINE2":"2 54204  53.2173 333.4796 0001077  81.5957 278.5157 15.08856144 17198","DECAY_DATE":null,"COUNTRY_CODE":"US","MEAN_ELEMENT_THEORY":"SGP4","INCLINATION":"53.2173","PERIAPSIS":"538.951","RCS_SIZE":"LARGE","APOAPSIS":"540.441","MEAN_MOTION_DDOT":"0.0000000000000","OBJECT_ID":"2022-141AZ","LAUNCH_DATE":"2022-10-28","ELEMENT_SET_NO":"999"},{"FILE":"3795153","OBJECT_TYPE":"PAYLOAD","REV_AT_EPOCH":"1723","NORAD_CAT_ID":"54205","MEAN_ANOMALY":"252.3800","EPHEMERIS_TYPE":"0","TIME_SYSTEM":"UTC","BSTAR":"0.00026189000000","ECCENTRICITY":"0.00004600","GP_ID":"225555812","MEAN_MOTION_DOT":"0.00003882","CENTER_NAME":"EARTH","SITE":"AFWTR","TLE_LINE1":"1 54205U 22141BA  23046.76116893  .00003882  00000-0  26189-3 0  9992","ARG_OF_PERICENTER":"107.7242","SEMIMAJOR_AXIS":"6917.901","RA_OF_ASC_NODE":"332.3359","REF_FRAME":"TEME","MEAN_MOTION":"15.08833158","EPOCH":"2023-02-15T18:16:04.995552","PERIOD":"95.438","TLE_LINE2":"2 54205  53.2181 332.3359 0000460 107.7242 252.3800 15.08833158 17234","CLASSIFICATION_TYPE":"U","OBJECT_NAME":"STARLINK-5249","DECAY_DATE":null,"COUNTRY_CODE":"US","MEAN_ELEMENT_THEORY":"SGP4","INCLINATION":"53.2181","PERIAPSIS":"539.448","APOAPSIS":"540.085","RCS_SIZE":"LARGE","MEAN_MOTION_DDOT":"0.0000000000000","OBJECT_ID":"2022-141BA","LAUNCH_DATE":"2022-10-28","ELEMENT_SET_NO":"999"},{"PERIOD":"91.534","EPOCH":"2023-02-15T22:07:21.325440","OBJECT_NAME":"STARLINK-5264","TLE_LINE2":"2 54206  53.2152 314.7317 0001493  19.5300 340.5777 15.73185595 17491","CLASSIFICATION_TYPE":"U","DECAY_DATE":null,"COUNTRY_CODE":"US","MEAN_ELEMENT_THEORY":"SGP4","INCLINATION":"53.2152","PERIAPSIS":"348.797","APOAPSIS":"350.806","RCS_SIZE":"LARGE","MEAN_MOTION_DDOT":"0.0000000000000","OBJECT_ID":"2022-141BB","LAUNCH_DATE":"2022-10-28","ELEMENT_SET_NO":"999","OBJECT_TYPE":"PAYLOAD","FILE":"3795153","REV_AT_EPOCH":"1749","NORAD_CAT_ID":"54206","MEAN_ANOMALY":"340.5777","EPHEMERIS_TYPE":"0","TIME_SYSTEM":"UTC","BSTAR":"-0.00000582890000","GP_ID":"225554575","ECCENTRICITY":"0.00014930","MEAN_MOTION_DOT":"-0.00001438","CENTER_NAME":"EARTH","SITE":"AFWTR","TLE_LINE1":"1 54206U 22141BB  23046.92177460 -.00001438  00000-0 -58289-5 0  9993","SEMIMAJOR_AXIS":"6727.936","ARG_OF_PERICENTER":"19.5300","RA_OF_ASC_NODE":"314.7317","REF_FRAME":"TEME","MEAN_MOTION":"15.73185595"}];
